CCSDS_OMM_VERS = 2.0
CREATION_DATE  = 
ORIGINATOR     = 

OBJECT_NAME    = KUIPER-00252
OBJECT_ID      = 2025-301AA
CENTER_NAME    = EARTH
REF_FRAME      = TEME
TIME_SYSTEM    = UTC
MEAN_ELEMENT_THEORY = SGP/SGP4

EPOCH          = 2026-01-13T03:49:27.932448
MEAN_MOTION    = 15.35018392
ECCENTRICITY   = .00098794
INCLINATION    = 51.8668
RA_OF_ASC_NODE = 333.8125
ARG_OF_PERICENTER = 203.9985
MEAN_ANOMALY   = 156.0542

EPHEMERIS_TYPE = 0
CLASSIFICATION_TYPE = U
NORAD_CAT_ID   = 67157
ELEMENT_SET_NO = 999
REV_AT_EPOCH   = 519
BSTAR          = .52816349E-3
MEAN_MOTION_DOT = .17903E-3
MEAN_MOTION_DDOT = 0

CCSDS_OMM_VERS = 2.0
CREATION_DATE  = 
ORIGINATOR     = 

OBJECT_NAME    = KUIPER-00261
OBJECT_ID      = 2025-301AB
CENTER_NAME    = EARTH
REF_FRAME      = TEME
TIME_SYSTEM    = UTC
MEAN_ELEMENT_THEORY = SGP/SGP4

EPOCH          = 2026-01-13T06:25:48.896256
MEAN_MOTION    = 15.36265263
ECCENTRICITY   = .00068029
INCLINATION    = 51.8709
RA_OF_ASC_NODE = 333.0519
ARG_OF_PERICENTER = 180.2231
MEAN_ANOMALY   = 179.8754

EPHEMERIS_TYPE = 0
CLASSIFICATION_TYPE = U
NORAD_CAT_ID   = 67158
ELEMENT_SET_NO = 999
REV_AT_EPOCH   = 521
BSTAR          = .78983374E-3
MEAN_MOTION_DOT = .2809E-3
MEAN_MOTION_DDOT = 0

CCSDS_OMM_VERS = 2.0
CREATION_DATE  = 
ORIGINATOR     = 

OBJECT_NAME    = KUIPER-00265
OBJECT_ID      = 2025-301AC
CENTER_NAME    = EARTH
REF_FRAME      = TEME
TIME_SYSTEM    = UTC
MEAN_ELEMENT_THEORY = SGP/SGP4

EPOCH          = 2026-01-13T06:00:02.000160
MEAN_MOTION    = 15.21111069
ECCENTRICITY   = .00007445
INCLINATION    = 51.8822
RA_OF_ASC_NODE = 333.5402
ARG_OF_PERICENTER = 191.5030
MEAN_ANOMALY   = 254.4660

EPHEMERIS_TYPE = 0
CLASSIFICATION_TYPE = U
NORAD_CAT_ID   = 67159
ELEMENT_SET_NO = 999
REV_AT_EPOCH   = 523
BSTAR          = -.10339943E+0
MEAN_MOTION_DOT = -.2093693E-1
MEAN_MOTION_DDOT = 0

CCSDS_OMM_VERS = 2.0
CREATION_DATE  = 
ORIGINATOR     = 

OBJECT_NAME    = GALILEO 33
OBJECT_ID      = 2025-302A
CENTER_NAME    = EARTH
REF_FRAME      = TEME
TIME_SYSTEM    = UTC
MEAN_ELEMENT_THEORY = SGP/SGP4

EPOCH          = 2025-12-18T03:30:19.486368
MEAN_MOTION    = 1.72906186
ECCENTRICITY   = .00084238
INCLINATION    = 54.2406
RA_OF_ASC_NODE = 107.2544
ARG_OF_PERICENTER = 237.6458
MEAN_ANOMALY   = 122.2317

EPHEMERIS_TYPE = 0
CLASSIFICATION_TYPE = U
NORAD_CAT_ID   = 67160
ELEMENT_SET_NO = 999
REV_AT_EPOCH   = 2
BSTAR          = 0
MEAN_MOTION_DOT = -.7E-7
MEAN_MOTION_DDOT = 0

CCSDS_OMM_VERS = 2.0
CREATION_DATE  = 
ORIGINATOR     = 

OBJECT_NAME    = GALILEO B
OBJECT_ID      = 2025-302B
CENTER_NAME    = EARTH
REF_FRAME      = TEME
TIME_SYSTEM    = UTC
MEAN_ELEMENT_THEORY = SGP/SGP4

EPOCH          = 2026-01-11T10:14:05.165952
MEAN_MOTION    = 1.72972425
ECCENTRICITY   = .00050832
INCLINATION    = 54.2421
RA_OF_ASC_NODE = 106.5099
ARG_OF_PERICENTER = 260.1895
MEAN_ANOMALY   = 99.7577

EPHEMERIS_TYPE = 0
CLASSIFICATION_TYPE = U
NORAD_CAT_ID   = 67161
ELEMENT_SET_NO = 999
REV_AT_EPOCH   = 45
BSTAR          = 0
MEAN_MOTION_DOT = -.33E-6
MEAN_MOTION_DDOT = 0

CCSDS_OMM_VERS = 2.0
CREATION_DATE  = 
ORIGINATOR     = 

OBJECT_NAME    = GALILEO 33 (139)
OBJECT_ID      = 2025-302C
CENTER_NAME    = EARTH
REF_FRAME      = TEME
TIME_SYSTEM    = UTC
MEAN_ELEMENT_THEORY = SGP/SGP4

EPOCH          = 2025-12-22T04:22:43.605696
MEAN_MOTION    = 1.73130437
ECCENTRICITY   = .0000312
INCLINATION    = 54.2447
RA_OF_ASC_NODE = 107.1379
ARG_OF_PERICENTER = 196.8367
MEAN_ANOMALY   = 159.4994

EPHEMERIS_TYPE = 0
CLASSIFICATION_TYPE = U
NORAD_CAT_ID   = 67162
ELEMENT_SET_NO = 999
REV_AT_EPOCH   = 12
BSTAR          = 0
MEAN_MOTION_DOT = .6E-7
MEAN_MOTION_DDOT = 0

CCSDS_OMM_VERS = 2.0
CREATION_DATE  = 
ORIGINATOR     = 

OBJECT_NAME    = STARLINK-35755
OBJECT_ID      = 2025-303A
CENTER_NAME    = EARTH
REF_FRAME      = TEME
TIME_SYSTEM    = UTC
MEAN_ELEMENT_THEORY = SGP/SGP4

EPOCH          = 2025-12-17T14:36:01.999872
MEAN_MOTION    = 16.01284782
ECCENTRICITY   = .00115
INCLINATION    = 43.0100
RA_OF_ASC_NODE = 69.0834
ARG_OF_PERICENTER = 323.6500
MEAN_ANOMALY   = 9.4800

EPHEMERIS_TYPE = 0
CLASSIFICATION_TYPE = U
NORAD_CAT_ID   = 67163
ELEMENT_SET_NO = 999
REV_AT_EPOCH   = 1
BSTAR          = 0
MEAN_MOTION_DOT = -.2699E-4
MEAN_MOTION_DDOT = .8533731E-5

CCSDS_OMM_VERS = 2.0
CREATION_DATE  = 
ORIGINATOR     = 

OBJECT_NAME    = STARLINK-36201
OBJECT_ID      = 2025-303B
CENTER_NAME    = EARTH
REF_FRAME      = TEME
TIME_SYSTEM    = UTC
MEAN_ELEMENT_THEORY = SGP/SGP4

EPOCH          = 2025-12-17T14:36:01.999872
MEAN_MOTION    = 16.01284782
ECCENTRICITY   = .00115
INCLINATION    = 43.0100
RA_OF_ASC_NODE = 69.0834
ARG_OF_PERICENTER = 323.6500
MEAN_ANOMALY   = 9.4800

EPHEMERIS_TYPE = 0
CLASSIFICATION_TYPE = U
NORAD_CAT_ID   = 67164
ELEMENT_SET_NO = 999
REV_AT_EPOCH   = 1
BSTAR          = 0
MEAN_MOTION_DOT = -.2699E-4
MEAN_MOTION_DDOT = .8533731E-5

CCSDS_OMM_VERS = 2.0
CREATION_DATE  = 
ORIGINATOR     = 

OBJECT_NAME    = STARLINK-36186
OBJECT_ID      = 2025-303C
CENTER_NAME    = EARTH
REF_FRAME      = TEME
TIME_SYSTEM    = UTC
MEAN_ELEMENT_THEORY = SGP/SGP4

EPOCH          = 2025-12-17T14:36:01.999872
MEAN_MOTION    = 16.01284782
ECCENTRICITY   = .00115
INCLINATION    = 43.0100
RA_OF_ASC_NODE = 69.0834
ARG_OF_PERICENTER = 323.6500
MEAN_ANOMALY   = 9.4800

EPHEMERIS_TYPE = 0
CLASSIFICATION_TYPE = U
NORAD_CAT_ID   = 67165
ELEMENT_SET_NO = 999
REV_AT_EPOCH   = 1
BSTAR          = 0
MEAN_MOTION_DOT = -.2699E-4
MEAN_MOTION_DDOT = .8533731E-5

CCSDS_OMM_VERS = 2.0
CREATION_DATE  = 
ORIGINATOR     = 

OBJECT_NAME    = STARLINK-36174
OBJECT_ID      = 2025-303D
CENTER_NAME    = EARTH
REF_FRAME      = TEME
TIME_SYSTEM    = UTC
MEAN_ELEMENT_THEORY = SGP/SGP4

EPOCH          = 2025-12-17T14:36:01.999872
MEAN_MOTION    = 16.01284782
ECCENTRICITY   = .00115
INCLINATION    = 43.0100
RA_OF_ASC_NODE = 69.0834
ARG_OF_PERICENTER = 323.6500
MEAN_ANOMALY   = 9.4800

EPHEMERIS_TYPE = 0
CLASSIFICATION_TYPE = U
NORAD_CAT_ID   = 67166
ELEMENT_SET_NO = 999
REV_AT_EPOCH   = 1
BSTAR          = 0
MEAN_MOTION_DOT = -.2699E-4
MEAN_MOTION_DDOT = .8533731E-5

CCSDS_OMM_VERS = 2.0
CREATION_DATE  = 
ORIGINATOR     = 

OBJECT_NAME    = STARLINK-36198
OBJECT_ID      = 2025-303E
CENTER_NAME    = EARTH
REF_FRAME      = TEME
TIME_SYSTEM    = UTC
MEAN_ELEMENT_THEORY = SGP/SGP4

EPOCH          = 2025-12-17T14:36:01.999872
MEAN_MOTION    = 16.01284782
ECCENTRICITY   = .00115
INCLINATION    = 43.0100
RA_OF_ASC_NODE = 69.0834
ARG_OF_PERICENTER = 323.6500
MEAN_ANOMALY   = 9.4800

EPHEMERIS_TYPE = 0
CLASSIFICATION_TYPE = U
NORAD_CAT_ID   = 67167
ELEMENT_SET_NO = 999
REV_AT_EPOCH   = 1
BSTAR          = 0
MEAN_MOTION_DOT = -.2699E-4
MEAN_MOTION_DDOT = .8533731E-5

CCSDS_OMM_VERS = 2.0
CREATION_DATE  = 
ORIGINATOR     = 

OBJECT_NAME    = STARLINK-35903
OBJECT_ID      = 2025-303F
CENTER_NAME    = EARTH
REF_FRAME      = TEME
TIME_SYSTEM    = UTC
MEAN_ELEMENT_THEORY = SGP/SGP4

EPOCH          = 2025-12-17T14:36:01.999872
MEAN_MOTION    = 16.01284782
ECCENTRICITY   = .00115
INCLINATION    = 43.0100
RA_OF_ASC_NODE = 69.0834
ARG_OF_PERICENTER = 323.6500
MEAN_ANOMALY   = 9.4800

EPHEMERIS_TYPE = 0
CLASSIFICATION_TYPE = U
NORAD_CAT_ID   = 67168
ELEMENT_SET_NO = 999
REV_AT_EPOCH   = 1
BSTAR          = 0
MEAN_MOTION_DOT = -.2699E-4
MEAN_MOTION_DDOT = .8533731E-5

